{
"type": "FeatureCollection",
"name": "CONSERVACAO",
"crs": { "type": "name", "properties": { "name": "urn:ogc:def:crs:OGC:1.3:CRS84" } },
"features": [
{ "type": "Feature", "properties": { "Nome": "RPPN 001", "Classe": "Proteção Integral" }, "geometry": { "type": "MultiPolygon", "coordinates": [ [ [ [ -43.893759412167661, -21.228740455933675 ], [ -43.858206843603881, -21.214736275609813 ], [ -43.855726292960675, -21.264380194866579 ], [ -43.895475818559362, -21.279887913999399 ], [ -43.893759412167661, -21.228740455933675 ] ] ] ] } }
]
}
