{
"type": "FeatureCollection",
"name": "Fazendas",
"crs": { "type": "name", "properties": { "name": "urn:ogc:def:crs:OGC:1.3:CRS84" } },
"features": [
{ "type": "Feature", "properties": { "NM_MUN": "Barbacena", "NM_UF": "Minas Gerais", "CHAVE_AMB": "1003_3", "AREA": 4.45, "NOME": "AURORA - 1000", "FAZENDA": 1000 }, "geometry": { "type": "MultiPolygon", "coordinates": [ [ [ [ -43.927583102815291, -21.249900645208868 ], [ -43.927341088271326, -21.249978181304947 ], [ -43.92731083645333, -21.25006276609048 ], [ -43.927008318273366, -21.250133253374678 ], [ -43.926849496228883, -21.25033766630813 ], [ -43.926365467140961, -21.250887465204659 ], [ -43.926062948961004, -21.251169412560863 ], [ -43.925767993735548, -21.251521845997328 ], [ -43.925699927145061, -21.251817889432417 ], [ -43.926425970776961, -21.252318342457926 ], [ -43.926584792821437, -21.252501606520873 ], [ -43.926494037367448, -21.252677821751014 ], [ -43.926705800093416, -21.252959765680803 ], [ -43.926781429638403, -21.252959765680803 ], [ -43.927114199636357, -21.252825842381437 ], [ -43.927000755318865, -21.252706016168268 ], [ -43.92694781463738, -21.252480460679095 ], [ -43.92731083645333, -21.252388828662962 ], [ -43.928082257812207, -21.251951813648102 ], [ -43.928036880085223, -21.251712159702464 ], [ -43.927915872813244, -21.25143021338496 ], [ -43.927900746904243, -21.251359726721269 ], [ -43.927961250540235, -21.251183509914508 ], [ -43.927930998722225, -21.251028438950208 ], [ -43.927643606451277, -21.250443397024494 ], [ -43.927530162133799, -21.250499786708858 ], [ -43.927462095543298, -21.250330617590997 ], [ -43.927688984178282, -21.250041619898653 ], [ -43.927583102815291, -21.249900645208868 ] ] ] ] } },
{ "type": "Feature", "properties": { "NM_MUN": "Barbacena", "NM_UF": "Minas Gerais", "CHAVE_AMB": "1004_4", "AREA": 1.42, "NOME": "DOCE - 1001", "FAZENDA": 1001 }, "geometry": { "type": "MultiPolygon", "coordinates": [ [ [ [ -43.929904929846451, -21.247148087363648 ], [ -43.929806611437961, -21.247334882288012 ], [ -43.929704511552231, -21.247341931148455 ], [ -43.929644007916245, -21.247348980008546 ], [ -43.929564596893989, -21.247384224303975 ], [ -43.929466278485513, -21.247465286151474 ], [ -43.929178886214551, -21.24808558402999 ], [ -43.929239389850551, -21.248106730502546 ], [ -43.929326363827286, -21.248043291075767 ], [ -43.93052509211536, -21.248409829609074 ], [ -43.930721728932333, -21.248096157266652 ], [ -43.93072929188682, -21.24801509576621 ], [ -43.930699040068838, -21.247951656299982 ], [ -43.930630973478351, -21.247860021467201 ], [ -43.930540218024348, -21.247761337737405 ], [ -43.930532655069861, -21.247592165475421 ], [ -43.930604503137594, -21.247377175445571 ], [ -43.930612066092088, -21.247317260135464 ], [ -43.930562906887857, -21.247264393665127 ], [ -43.929980559391439, -21.247130465188743 ], [ -43.929904929846451, -21.247148087363648 ] ] ] ] } },
{ "type": "Feature", "properties": { "NM_MUN": "Barbacena", "NM_UF": "Minas Gerais", "CHAVE_AMB": "1005_5", "AREA": 2.64, "NOME": "MELITTA - 1002", "FAZENDA": 1002 }, "geometry": { "type": "MultiPolygon", "coordinates": [ [ [ [ -43.928948216102363, -21.251356202387189 ], [ -43.929194012123574, -21.252286623654662 ], [ -43.929296112009304, -21.252646103025139 ], [ -43.92939064894054, -21.252811745184943 ], [ -43.929515437689773, -21.253044348754518 ], [ -43.929602411666522, -21.253284000532965 ], [ -43.929628882007265, -21.253326291982809 ], [ -43.929746107801996, -21.25335448627596 ], [ -43.930033500072952, -21.253329816269751 ], [ -43.930097785186199, -21.253291049108785 ], [ -43.930230136889932, -21.253241709070981 ], [ -43.930332236775662, -21.253252281937613 ], [ -43.930441899615893, -21.253202941886823 ], [ -43.930513747683641, -21.253114834612177 ], [ -43.930525092115381, -21.253065494515361 ], [ -43.930415429275151, -21.25276945358738 ], [ -43.930415429275151, -21.252730686278941 ], [ -43.930464588479396, -21.252649627328356 ], [ -43.930396521888888, -21.252230234654203 ], [ -43.930445681093133, -21.251895424519493 ], [ -43.930438118138632, -21.251698062399402 ], [ -43.930298203480419, -21.251662819135849 ], [ -43.930290640525911, -21.251486602691621 ], [ -43.930233918367172, -21.251472505366969 ], [ -43.929867115073975, -21.251437262049464 ], [ -43.929757452233737, -21.251359726721262 ], [ -43.929659133825261, -21.251285715688098 ], [ -43.92945115257654, -21.251257520999008 ], [ -43.928948216102363, -21.251356202387189 ] ] ] ] } },
{ "type": "Feature", "properties": { "NM_MUN": "Barbacena", "NM_UF": "Minas Gerais", "CHAVE_AMB": "1003_3", "AREA": 4.45, "NOME": "AURORA - 1003", "FAZENDA": 1003 }, "geometry": { "type": "MultiPolygon", "coordinates": [ [ [ [ -43.826086378955189, -21.22675806973588 ], [ -43.825844364411225, -21.226835605831958 ], [ -43.825814112593228, -21.226920190617491 ], [ -43.825511594413264, -21.226990677901689 ], [ -43.825352772368781, -21.227195090835142 ], [ -43.824868743280859, -21.227744889731671 ], [ -43.824566225100902, -21.228026837087874 ], [ -43.824271269875446, -21.228379270524339 ], [ -43.824203203284959, -21.228675313959428 ], [ -43.824929246916859, -21.229175766984937 ], [ -43.825088068961335, -21.229359031047885 ], [ -43.824997313507346, -21.229535246278026 ], [ -43.825209076233314, -21.229817190207815 ], [ -43.825284705778301, -21.229817190207815 ], [ -43.825617475776255, -21.229683266908449 ], [ -43.825504031458763, -21.22956344069528 ], [ -43.825451090777278, -21.229337885206107 ], [ -43.825814112593228, -21.229246253189974 ], [ -43.826585533952105, -21.228809238175113 ], [ -43.826540156225121, -21.228569584229476 ], [ -43.826419148953143, -21.228287637911972 ], [ -43.826404023044141, -21.22821715124828 ], [ -43.826464526680134, -21.22804093444152 ], [ -43.826434274862123, -21.227885863477219 ], [ -43.826146882591175, -21.227300821551506 ], [ -43.826033438273697, -21.227357211235869 ], [ -43.825965371683196, -21.227188042118009 ], [ -43.82619226031818, -21.226899044425664 ], [ -43.826086378955189, -21.22675806973588 ] ] ] ] } },
{ "type": "Feature", "properties": { "NM_MUN": "Barbacena", "NM_UF": "Minas Gerais", "CHAVE_AMB": "1004_4", "AREA": 1.42, "NOME": "DOCE - 1004", "FAZENDA": 1004 }, "geometry": { "type": "MultiPolygon", "coordinates": [ [ [ [ -43.828408205986349, -21.22400551189066 ], [ -43.828309887577859, -21.224192306815024 ], [ -43.828207787692129, -21.224199355675466 ], [ -43.828147284056143, -21.224206404535558 ], [ -43.828067873033888, -21.224241648830986 ], [ -43.827969554625412, -21.224322710678486 ], [ -43.827682162354449, -21.224943008557002 ], [ -43.827742665990449, -21.224964155029557 ], [ -43.827829639967185, -21.224900715602779 ], [ -43.829028368255258, -21.225267254136085 ], [ -43.829225005072232, -21.224953581793663 ], [ -43.829232568026718, -21.224872520293221 ], [ -43.829202316208736, -21.224809080826994 ], [ -43.829134249618249, -21.224717445994212 ], [ -43.829043494164246, -21.224618762264416 ], [ -43.829035931209759, -21.224449590002433 ], [ -43.829107779277493, -21.224234599972583 ], [ -43.829115342231987, -21.224174684662476 ], [ -43.829066183027756, -21.224121818192138 ], [ -43.828483835531337, -21.223987889715755 ], [ -43.828408205986349, -21.22400551189066 ] ] ] ] } },
{ "type": "Feature", "properties": { "NM_MUN": "Barbacena", "NM_UF": "Minas Gerais", "CHAVE_AMB": "1005_5", "AREA": 2.64, "NOME": "MELITTA - 1005", "FAZENDA": 1005 }, "geometry": { "type": "MultiPolygon", "coordinates": [ [ [ [ -43.827451492242261, -21.228213626914201 ], [ -43.827697288263472, -21.229144048181674 ], [ -43.827799388149202, -21.229503527552151 ], [ -43.827893925080438, -21.229669169711954 ], [ -43.828018713829671, -21.229901773281529 ], [ -43.828105687806421, -21.230141425059976 ], [ -43.828132158147163, -21.230183716509821 ], [ -43.828249383941895, -21.230211910802971 ], [ -43.82853677621285, -21.230187240796763 ], [ -43.828601061326097, -21.230148473635797 ], [ -43.828733413029831, -21.230099133597992 ], [ -43.82883551291556, -21.230109706464624 ], [ -43.828945175755791, -21.230060366413834 ], [ -43.829017023823539, -21.229972259139188 ], [ -43.82902836825528, -21.229922919042373 ], [ -43.828918705415049, -21.229626878114392 ], [ -43.828918705415049, -21.229588110805953 ], [ -43.828967864619294, -21.229507051855368 ], [ -43.828899798028786, -21.229087659181214 ], [ -43.828948957233031, -21.228752849046504 ], [ -43.82894139427853, -21.228555486926414 ], [ -43.828801479620317, -21.22852024366286 ], [ -43.828793916665809, -21.228344027218633 ], [ -43.82873719450707, -21.228329929893981 ], [ -43.828370391213873, -21.228294686576476 ], [ -43.828260728373635, -21.228217151248273 ], [ -43.828162409965159, -21.22814314021511 ], [ -43.827954428716438, -21.22811494552602 ], [ -43.827451492242261, -21.228213626914201 ] ] ] ] } },
{ "type": "Feature", "properties": { "NM_MUN": "Barbacena", "NM_UF": "Minas Gerais", "CHAVE_AMB": "1003_3", "AREA": 4.45, "NOME": "AURORA - 1006", "FAZENDA": 1006 }, "geometry": { "type": "MultiPolygon", "coordinates": [ [ [ [ -43.823110904965802, -21.1897299489791 ], [ -43.822868890421837, -21.189807485075178 ], [ -43.822838638603841, -21.189892069860711 ], [ -43.822536120423877, -21.189962557144909 ], [ -43.822377298379394, -21.190166970078362 ], [ -43.821893269291472, -21.190716768974891 ], [ -43.821590751111515, -21.190998716331094 ], [ -43.821295795886058, -21.191351149767559 ], [ -43.821227729295572, -21.191647193202648 ], [ -43.821953772927472, -21.192147646228157 ], [ -43.822112594971948, -21.192330910291105 ], [ -43.822021839517959, -21.192507125521246 ], [ -43.822233602243926, -21.192789069451035 ], [ -43.822309231788914, -21.192789069451035 ], [ -43.822642001786868, -21.192655146151669 ], [ -43.822528557469376, -21.1925353199385 ], [ -43.822475616787891, -21.192309764449327 ], [ -43.822838638603841, -21.192218132433194 ], [ -43.823610059962718, -21.191781117418333 ], [ -43.823564682235734, -21.191541463472696 ], [ -43.823443674963755, -21.191259517155192 ], [ -43.823428549054753, -21.1911890304915 ], [ -43.823489052690746, -21.19101281368474 ], [ -43.823458800872736, -21.190857742720439 ], [ -43.823171408601787, -21.190272700794726 ], [ -43.82305796428431, -21.190329090479089 ], [ -43.822989897693809, -21.190159921361229 ], [ -43.823216786328793, -21.189870923668884 ], [ -43.823110904965802, -21.1897299489791 ] ] ] ] } },
{ "type": "Feature", "properties": { "NM_MUN": "Barbacena", "NM_UF": "Minas Gerais", "CHAVE_AMB": "1004_4", "AREA": 1.42, "NOME": "DOCE - 1007", "FAZENDA": 1007 }, "geometry": { "type": "MultiPolygon", "coordinates": [ [ [ [ -43.825432731996962, -21.18697739113388 ], [ -43.825334413588472, -21.187164186058244 ], [ -43.825232313702742, -21.187171234918686 ], [ -43.825171810066756, -21.187178283778778 ], [ -43.8250923990445, -21.187213528074206 ], [ -43.824994080636024, -21.187294589921706 ], [ -43.824706688365062, -21.187914887800222 ], [ -43.824767192001062, -21.187936034272777 ], [ -43.824854165977797, -21.187872594845999 ], [ -43.826052894265871, -21.188239133379305 ], [ -43.826249531082844, -21.187925461036883 ], [ -43.826257094037331, -21.187844399536441 ], [ -43.826226842219349, -21.187780960070214 ], [ -43.826158775628862, -21.187689325237432 ], [ -43.826068020174858, -21.187590641507636 ], [ -43.826060457220372, -21.187421469245653 ], [ -43.826132305288105, -21.187206479215803 ], [ -43.826139868242599, -21.187146563905696 ], [ -43.826090709038368, -21.187093697435358 ], [ -43.825508361541949, -21.186959768958975 ], [ -43.825432731996962, -21.18697739113388 ] ] ] ] } },
{ "type": "Feature", "properties": { "NM_MUN": "Barbacena", "NM_UF": "Minas Gerais", "CHAVE_AMB": "1005_5", "AREA": 2.64, "NOME": "MELITTA - 1008", "FAZENDA": 1008 }, "geometry": { "type": "MultiPolygon", "coordinates": [ [ [ [ -43.824476018252874, -21.191185506157421 ], [ -43.824721814274085, -21.192115927424894 ], [ -43.824823914159815, -21.192475406795371 ], [ -43.824918451091051, -21.192641048955174 ], [ -43.825043239840284, -21.192873652524749 ], [ -43.825130213817033, -21.193113304303196 ], [ -43.825156684157776, -21.193155595753041 ], [ -43.825273909952507, -21.193183790046191 ], [ -43.825561302223463, -21.193159120039983 ], [ -43.82562558733671, -21.193120352879017 ], [ -43.825757939040443, -21.193071012841212 ], [ -43.825860038926173, -21.193081585707844 ], [ -43.825969701766404, -21.193032245657054 ], [ -43.826041549834152, -21.192944138382408 ], [ -43.826052894265892, -21.192894798285593 ], [ -43.825943231425661, -21.192598757357612 ], [ -43.825943231425661, -21.192559990049173 ], [ -43.825992390629906, -21.192478931098588 ], [ -43.825924324039399, -21.192059538424434 ], [ -43.825973483243644, -21.191724728289724 ], [ -43.825965920289143, -21.191527366169634 ], [ -43.82582600563093, -21.19149212290608 ], [ -43.825818442676422, -21.191315906461853 ], [ -43.825761720517683, -21.191301809137201 ], [ -43.825394917224486, -21.191266565819696 ], [ -43.825285254384248, -21.191189030491493 ], [ -43.825186935975772, -21.19111501945833 ], [ -43.824978954727051, -21.19108682476924 ], [ -43.824476018252874, -21.191185506157421 ] ] ] ] } },
{ "type": "Feature", "properties": { "NM_MUN": "Barbacena", "NM_UF": "Minas Gerais", "CHAVE_AMB": "1003_3", "AREA": 4.45, "NOME": "AURORA - 1009", "FAZENDA": 1009 }, "geometry": { "type": "MultiPolygon", "coordinates": [ [ [ [ -43.869396055911778, -21.191713598305356 ], [ -43.869154041367814, -21.191791134401434 ], [ -43.869123789549818, -21.191875719186967 ], [ -43.868821271369853, -21.191946206471165 ], [ -43.86866244932537, -21.192150619404618 ], [ -43.868178420237449, -21.192700418301147 ], [ -43.867875902057492, -21.19298236565735 ], [ -43.867580946832035, -21.193334799093815 ], [ -43.867512880241549, -21.193630842528904 ], [ -43.868238923873449, -21.194131295554413 ], [ -43.868397745917925, -21.194314559617361 ], [ -43.868306990463935, -21.194490774847502 ], [ -43.868518753189903, -21.194772718777291 ], [ -43.868594382734891, -21.194772718777291 ], [ -43.868927152732844, -21.194638795477925 ], [ -43.868813708415352, -21.194518969264756 ], [ -43.868760767733868, -21.194293413775583 ], [ -43.869123789549818, -21.19420178175945 ], [ -43.869895210908695, -21.193764766744589 ], [ -43.869849833181711, -21.193525112798952 ], [ -43.869728825909732, -21.193243166481448 ], [ -43.86971370000073, -21.193172679817756 ], [ -43.869774203636723, -21.192996463010996 ], [ -43.869743951818712, -21.192841392046695 ], [ -43.869456559547764, -21.192256350120982 ], [ -43.869343115230286, -21.192312739805345 ], [ -43.869275048639786, -21.192143570687485 ], [ -43.869501937274769, -21.19185457299514 ], [ -43.869396055911778, -21.191713598305356 ] ] ] ] } },
{ "type": "Feature", "properties": { "NM_MUN": "Barbacena", "NM_UF": "Minas Gerais", "CHAVE_AMB": "1004_4", "AREA": 1.42, "NOME": "DOCE - 1010", "FAZENDA": 1010 }, "geometry": { "type": "MultiPolygon", "coordinates": [ [ [ [ -43.871717882942939, -21.188961040460136 ], [ -43.871619564534448, -21.1891478353845 ], [ -43.871517464648718, -21.189154884244942 ], [ -43.871456961012733, -21.189161933105034 ], [ -43.871377549990477, -21.189197177400462 ], [ -43.871279231582001, -21.189278239247962 ], [ -43.870991839311039, -21.189898537126478 ], [ -43.871052342947038, -21.189919683599033 ], [ -43.871139316923774, -21.189856244172255 ], [ -43.872338045211848, -21.190222782705561 ], [ -43.872534682028821, -21.189909110363139 ], [ -43.872542244983308, -21.189828048862697 ], [ -43.872511993165325, -21.18976460939647 ], [ -43.872443926574839, -21.189672974563688 ], [ -43.872353171120835, -21.189574290833892 ], [ -43.872345608166349, -21.189405118571909 ], [ -43.872417456234082, -21.189190128542059 ], [ -43.872425019188576, -21.189130213231952 ], [ -43.872375859984345, -21.189077346761614 ], [ -43.871793512487926, -21.188943418285231 ], [ -43.871717882942939, -21.188961040460136 ] ] ] ] } },
{ "type": "Feature", "properties": { "NM_MUN": "Barbacena", "NM_UF": "Minas Gerais", "CHAVE_AMB": "1005_5", "AREA": 2.64, "NOME": "MELITTA - 1011", "FAZENDA": 1011 }, "geometry": { "type": "MultiPolygon", "coordinates": [ [ [ [ -43.87076116919885, -21.193169155483677 ], [ -43.871006965220062, -21.19409957675115 ], [ -43.871109065105792, -21.194459056121627 ], [ -43.871203602037028, -21.19462469828143 ], [ -43.87132839078626, -21.194857301851005 ], [ -43.87141536476301, -21.195096953629452 ], [ -43.871441835103752, -21.195139245079297 ], [ -43.871559060898484, -21.195167439372447 ], [ -43.871846453169439, -21.195142769366239 ], [ -43.871910738282686, -21.195104002205273 ], [ -43.87204308998642, -21.195054662167468 ], [ -43.87214518987215, -21.1950652350341 ], [ -43.872254852712381, -21.19501589498331 ], [ -43.872326700780128, -21.194927787708664 ], [ -43.872338045211869, -21.194878447611849 ], [ -43.872228382371638, -21.194582406683868 ], [ -43.872228382371638, -21.194543639375429 ], [ -43.872277541575883, -21.194462580424844 ], [ -43.872209474985375, -21.19404318775069 ], [ -43.87225863418962, -21.19370837761598 ], [ -43.872251071235119, -21.19351101549589 ], [ -43.872111156576906, -21.193475772232336 ], [ -43.872103593622398, -21.193299555788109 ], [ -43.87204687146366, -21.193285458463457 ], [ -43.871680068170463, -21.193250215145952 ], [ -43.871570405330225, -21.193172679817749 ], [ -43.871472086921749, -21.193098668784586 ], [ -43.871264105673028, -21.193070474095496 ], [ -43.87076116919885, -21.193169155483677 ] ] ] ] } },
{ "type": "Feature", "properties": { "NM_MUN": "Barbacena", "NM_UF": "Minas Gerais", "CHAVE_AMB": "1003_3", "AREA": 4.45, "NOME": "AURORA - 1012", "FAZENDA": 1012 }, "geometry": { "type": "MultiPolygon", "coordinates": [ [ [ [ -43.911713908205236, -21.304120393459865 ], [ -43.911471893661272, -21.304197929555944 ], [ -43.911441641843275, -21.304282514341477 ], [ -43.911139123663311, -21.304353001625675 ], [ -43.910980301618828, -21.304557414559127 ], [ -43.910496272530906, -21.305107213455656 ], [ -43.910193754350949, -21.30538916081186 ], [ -43.909898799125493, -21.305741594248325 ], [ -43.909830732535006, -21.306037637683414 ], [ -43.910556776166906, -21.306538090708923 ], [ -43.910715598211382, -21.30672135477187 ], [ -43.910624842757393, -21.306897570002011 ], [ -43.910836605483361, -21.3071795139318 ], [ -43.910912235028349, -21.3071795139318 ], [ -43.911245005026302, -21.307045590632434 ], [ -43.91113156070881, -21.306925764419265 ], [ -43.911078620027325, -21.306700208930092 ], [ -43.911441641843275, -21.306608576913959 ], [ -43.912213063202152, -21.306171561899099 ], [ -43.912167685475168, -21.305931907953461 ], [ -43.91204667820319, -21.305649961635957 ], [ -43.912031552294188, -21.305579474972266 ], [ -43.912092055930181, -21.305403258165505 ], [ -43.91206180411217, -21.305248187201205 ], [ -43.911774411841222, -21.304663145275491 ], [ -43.911660967523744, -21.304719534959855 ], [ -43.911592900933243, -21.304550365841994 ], [ -43.911819789568227, -21.30426136814965 ], [ -43.911713908205236, -21.304120393459865 ] ] ] ] } },
{ "type": "Feature", "properties": { "NM_MUN": "Barbacena", "NM_UF": "Minas Gerais", "CHAVE_AMB": "1004_4", "AREA": 1.42, "NOME": "DOCE - 1013", "FAZENDA": 1013 }, "geometry": { "type": "MultiPolygon", "coordinates": [ [ [ [ -43.914035735236396, -21.301367835614645 ], [ -43.913937416827906, -21.301554630539009 ], [ -43.913835316942176, -21.301561679399452 ], [ -43.91377481330619, -21.301568728259543 ], [ -43.913695402283935, -21.301603972554972 ], [ -43.913597083875459, -21.301685034402471 ], [ -43.913309691604496, -21.302305332280987 ], [ -43.913370195240496, -21.302326478753542 ], [ -43.913457169217232, -21.302263039326764 ], [ -43.914655897505305, -21.30262957786007 ], [ -43.914852534322279, -21.302315905517649 ], [ -43.914860097276765, -21.302234844017207 ], [ -43.914829845458783, -21.302171404550979 ], [ -43.914761778868296, -21.302079769718198 ], [ -43.914671023414293, -21.301981085988402 ], [ -43.914663460459806, -21.301811913726418 ], [ -43.91473530852754, -21.301596923696568 ], [ -43.914742871482034, -21.301537008386461 ], [ -43.914693712277803, -21.301484141916124 ], [ -43.914111364781384, -21.30135021343974 ], [ -43.914035735236396, -21.301367835614645 ] ] ] ] } },
{ "type": "Feature", "properties": { "NM_MUN": "Barbacena", "NM_UF": "Minas Gerais", "CHAVE_AMB": "1005_5", "AREA": 2.64, "NOME": "MELITTA - 1014", "FAZENDA": 1014 }, "geometry": { "type": "MultiPolygon", "coordinates": [ [ [ [ -43.913079021492308, -21.305575950638186 ], [ -43.913324817513519, -21.306506371905659 ], [ -43.913426917399249, -21.306865851276136 ], [ -43.913521454330485, -21.307031493435939 ], [ -43.913646243079718, -21.307264097005515 ], [ -43.913733217056468, -21.307503748783962 ], [ -43.91375968739721, -21.307546040233806 ], [ -43.913876913191942, -21.307574234526957 ], [ -43.914164305462897, -21.307549564520748 ], [ -43.914228590576144, -21.307510797359782 ], [ -43.914360942279878, -21.307461457321978 ], [ -43.914463042165607, -21.30747203018861 ], [ -43.914572705005838, -21.30742269013782 ], [ -43.914644553073586, -21.307334582863174 ], [ -43.914655897505327, -21.307285242766358 ], [ -43.914546234665096, -21.306989201838377 ], [ -43.914546234665096, -21.306950434529938 ], [ -43.914595393869341, -21.306869375579353 ], [ -43.914527327278833, -21.3064499829052 ], [ -43.914576486483078, -21.30611517277049 ], [ -43.914568923528577, -21.305917810650399 ], [ -43.914429008870364, -21.305882567386845 ], [ -43.914421445915856, -21.305706350942618 ], [ -43.914364723757117, -21.305692253617966 ], [ -43.91399792046392, -21.305657010300461 ], [ -43.913888257623682, -21.305579474972259 ], [ -43.913789939215206, -21.305505463939095 ], [ -43.913581957966485, -21.305477269250005 ], [ -43.913079021492308, -21.305575950638186 ] ] ] ] } },
{ "type": "Feature", "properties": { "NM_MUN": "Barbacena", "NM_UF": "Minas Gerais", "CHAVE_AMB": "1003_3", "AREA": 4.45, "NOME": "AURORA - 1015", "FAZENDA": 1015 }, "geometry": { "type": "MultiPolygon", "coordinates": [ [ [ [ -43.964611223572064, -21.274696261787067 ], [ -43.964369209028099, -21.274773797883146 ], [ -43.964338957210103, -21.274858382668679 ], [ -43.964036439030139, -21.274928869952877 ], [ -43.963877616985656, -21.27513328288633 ], [ -43.963393587897734, -21.275683081782859 ], [ -43.963091069717777, -21.275965029139062 ], [ -43.96279611449232, -21.276317462575527 ], [ -43.962728047901834, -21.276613506010616 ], [ -43.963454091533734, -21.277113959036125 ], [ -43.96361291357821, -21.277297223099072 ], [ -43.963522158124221, -21.277473438329213 ], [ -43.963733920850188, -21.277755382259002 ], [ -43.963809550395176, -21.277755382259002 ], [ -43.96414232039313, -21.277621458959636 ], [ -43.964028876075638, -21.277501632746468 ], [ -43.963975935394153, -21.277276077257294 ], [ -43.964338957210103, -21.277184445241161 ], [ -43.96511037856898, -21.276747430226301 ], [ -43.965065000841996, -21.276507776280663 ], [ -43.964943993570017, -21.27622582996316 ], [ -43.964928867661015, -21.276155343299468 ], [ -43.964989371297008, -21.275979126492707 ], [ -43.964959119478998, -21.275824055528407 ], [ -43.964671727208049, -21.275239013602693 ], [ -43.964558282890572, -21.275295403287057 ], [ -43.964490216300071, -21.275126234169196 ], [ -43.964717104935055, -21.274837236476852 ], [ -43.964611223572064, -21.274696261787067 ] ] ] ] } },
{ "type": "Feature", "properties": { "NM_MUN": "Barbacena", "NM_UF": "Minas Gerais", "CHAVE_AMB": "1004_4", "AREA": 1.42, "NOME": "DOCE - 1016", "FAZENDA": 1016 }, "geometry": { "type": "MultiPolygon", "coordinates": [ [ [ [ -43.966933050603224, -21.271943703941847 ], [ -43.966834732194734, -21.272130498866211 ], [ -43.966732632309004, -21.272137547726654 ], [ -43.966672128673018, -21.272144596586745 ], [ -43.966592717650762, -21.272179840882174 ], [ -43.966494399242286, -21.272260902729673 ], [ -43.966207006971324, -21.27288120060819 ], [ -43.966267510607324, -21.272902347080745 ], [ -43.966354484584059, -21.272838907653966 ], [ -43.967553212872133, -21.273205446187273 ], [ -43.967749849689106, -21.272891773844851 ], [ -43.967757412643593, -21.272810712344409 ], [ -43.967727160825611, -21.272747272878181 ], [ -43.967659094235124, -21.2726556380454 ], [ -43.96756833878112, -21.272556954315604 ], [ -43.967560775826634, -21.27238778205362 ], [ -43.967632623894367, -21.27217279202377 ], [ -43.967640186848861, -21.272112876713663 ], [ -43.96759102764463, -21.272060010243326 ], [ -43.967008680148211, -21.271926081766942 ], [ -43.966933050603224, -21.271943703941847 ] ] ] ] } },
{ "type": "Feature", "properties": { "NM_MUN": "Barbacena", "NM_UF": "Minas Gerais", "CHAVE_AMB": "1005_5", "AREA": 2.64, "NOME": "MELITTA - 1017", "FAZENDA": 1017 }, "geometry": { "type": "MultiPolygon", "coordinates": [ [ [ [ -43.965976336859136, -21.276151818965388 ], [ -43.966222132880347, -21.277082240232861 ], [ -43.966324232766077, -21.277441719603338 ], [ -43.966418769697313, -21.277607361763142 ], [ -43.966543558446546, -21.277839965332717 ], [ -43.966630532423295, -21.278079617111164 ], [ -43.966657002764038, -21.278121908561008 ], [ -43.966774228558769, -21.278150102854159 ], [ -43.967061620829725, -21.278125432847951 ], [ -43.967125905942972, -21.278086665686985 ], [ -43.967258257646705, -21.27803732564918 ], [ -43.967360357532435, -21.278047898515812 ], [ -43.967470020372666, -21.277998558465022 ], [ -43.967541868440414, -21.277910451190376 ], [ -43.967553212872154, -21.277861111093561 ], [ -43.967443550031923, -21.277565070165579 ], [ -43.967443550031923, -21.27752630285714 ], [ -43.967492709236168, -21.277445243906556 ], [ -43.967424642645661, -21.277025851232402 ], [ -43.967473801849906, -21.276691041097692 ], [ -43.967466238895405, -21.276493678977602 ], [ -43.967326324237192, -21.276458435714048 ], [ -43.967318761282684, -21.27628221926982 ], [ -43.967262039123945, -21.276268121945169 ], [ -43.966895235830748, -21.276232878627663 ], [ -43.96678557299051, -21.276155343299461 ], [ -43.966687254582034, -21.276081332266298 ], [ -43.966479273333313, -21.276053137577208 ], [ -43.965976336859136, -21.276151818965388 ] ] ] ] } },
{ "type": "Feature", "properties": { "NM_MUN": "Barbacena", "NM_UF": "Minas Gerais", "CHAVE_AMB": "1003_3", "AREA": 4.45, "NOME": "AURORA - 1018", "FAZENDA": 1018 }, "geometry": { "type": "MultiPolygon", "coordinates": [ [ [ [ -43.98444771683463, -21.319328371627826 ], [ -43.984205702290666, -21.319405907723905 ], [ -43.984175450472669, -21.319490492509438 ], [ -43.983872932292705, -21.319560979793636 ], [ -43.983714110248222, -21.319765392727088 ], [ -43.983230081160301, -21.320315191623617 ], [ -43.982927562980343, -21.320597138979821 ], [ -43.982632607754887, -21.320949572416286 ], [ -43.9825645411644, -21.321245615851375 ], [ -43.9832905847963, -21.321746068876884 ], [ -43.983449406840776, -21.321929332939831 ], [ -43.983358651386787, -21.322105548169972 ], [ -43.983570414112755, -21.322387492099761 ], [ -43.983646043657743, -21.322387492099761 ], [ -43.983978813655696, -21.322253568800395 ], [ -43.983865369338204, -21.322133742587226 ], [ -43.983812428656719, -21.321908187098053 ], [ -43.984175450472669, -21.32181655508192 ], [ -43.984946871831546, -21.32137954006706 ], [ -43.984901494104562, -21.321139886121422 ], [ -43.984780486832584, -21.320857939803918 ], [ -43.984765360923582, -21.320787453140227 ], [ -43.984825864559575, -21.320611236333466 ], [ -43.984795612741564, -21.320456165369166 ], [ -43.984508220470616, -21.319871123443452 ], [ -43.984394776153138, -21.319927513127816 ], [ -43.984326709562637, -21.319758344009955 ], [ -43.984553598197621, -21.319469346317611 ], [ -43.98444771683463, -21.319328371627826 ] ] ] ] } },
{ "type": "Feature", "properties": { "NM_MUN": "Barbacena", "NM_UF": "Minas Gerais", "CHAVE_AMB": "1004_4", "AREA": 1.42, "NOME": "DOCE - 1019", "FAZENDA": 1019 }, "geometry": { "type": "MultiPolygon", "coordinates": [ [ [ [ -43.98676954386579, -21.316575813782606 ], [ -43.9866712254573, -21.31676260870697 ], [ -43.98656912557157, -21.316769657567413 ], [ -43.986508621935585, -21.316776706427504 ], [ -43.986429210913329, -21.316811950722933 ], [ -43.986330892504853, -21.316893012570432 ], [ -43.98604350023389, -21.317513310448948 ], [ -43.98610400386989, -21.317534456921504 ], [ -43.986190977846626, -21.317471017494725 ], [ -43.987389706134699, -21.317837556028032 ], [ -43.987586342951673, -21.31752388368561 ], [ -43.987593905906159, -21.317442822185168 ], [ -43.987563654088177, -21.31737938271894 ], [ -43.987495587497691, -21.317287747886159 ], [ -43.987404832043687, -21.317189064156363 ], [ -43.9873972690892, -21.317019891894379 ], [ -43.987469117156934, -21.316804901864529 ], [ -43.987476680111428, -21.316744986554422 ], [ -43.987427520907197, -21.316692120084085 ], [ -43.986845173410778, -21.316558191607701 ], [ -43.98676954386579, -21.316575813782606 ] ] ] ] } },
{ "type": "Feature", "properties": { "NM_MUN": "Barbacena", "NM_UF": "Minas Gerais", "CHAVE_AMB": "1005_5", "AREA": 2.64, "NOME": "MELITTA - 1020", "FAZENDA": 1020 }, "geometry": { "type": "MultiPolygon", "coordinates": [ [ [ [ -43.985812830121702, -21.320783928806147 ], [ -43.986058626142913, -21.32171435007362 ], [ -43.986160726028643, -21.322073829444097 ], [ -43.98625526295988, -21.322239471603901 ], [ -43.986380051709112, -21.322472075173476 ], [ -43.986467025685862, -21.322711726951923 ], [ -43.986493496026604, -21.322754018401767 ], [ -43.986610721821336, -21.322782212694918 ], [ -43.986898114092291, -21.322757542688709 ], [ -43.986962399205538, -21.322718775527743 ], [ -43.987094750909272, -21.322669435489939 ], [ -43.987196850795002, -21.322680008356571 ], [ -43.987306513635232, -21.322630668305781 ], [ -43.98737836170298, -21.322542561031135 ], [ -43.987389706134721, -21.322493220934319 ], [ -43.98728004329449, -21.322197180006338 ], [ -43.98728004329449, -21.322158412697899 ], [ -43.987329202498735, -21.322077353747314 ], [ -43.987261135908227, -21.321657961073161 ], [ -43.987310295112472, -21.321323150938451 ], [ -43.987302732157971, -21.32112578881836 ], [ -43.987162817499758, -21.321090545554807 ], [ -43.98715525454525, -21.320914329110579 ], [ -43.987098532386511, -21.320900231785927 ], [ -43.986731729093314, -21.320864988468422 ], [ -43.986622066253076, -21.32078745314022 ], [ -43.986523747844601, -21.320713442107056 ], [ -43.986315766595879, -21.320685247417966 ], [ -43.985812830121702, -21.320783928806147 ] ] ] ] } },
{ "type": "Feature", "properties": { "NM_MUN": "Barbacena", "NM_UF": "Minas Gerais", "CHAVE_AMB": "1003_3", "AREA": 4.45, "NOME": "AURORA - 1021", "FAZENDA": 1021 }, "geometry": { "type": "MultiPolygon", "coordinates": [ [ [ [ -43.986100757939838, -21.24527213011427 ], [ -43.985858743395873, -21.245349666210348 ], [ -43.985828491577877, -21.245434250995881 ], [ -43.985525973397912, -21.245504738280079 ], [ -43.985367151353429, -21.245709151213532 ], [ -43.984883122265508, -21.246258950110061 ], [ -43.984580604085551, -21.246540897466264 ], [ -43.984285648860094, -21.246893330902729 ], [ -43.984217582269608, -21.247189374337818 ], [ -43.984943625901508, -21.247689827363327 ], [ -43.985102447945984, -21.247873091426275 ], [ -43.985011692491994, -21.248049306656416 ], [ -43.985223455217962, -21.248331250586205 ], [ -43.98529908476295, -21.248331250586205 ], [ -43.985631854760904, -21.248197327286839 ], [ -43.985518410443412, -21.24807750107367 ], [ -43.985465469761927, -21.247851945584497 ], [ -43.985828491577877, -21.247760313568364 ], [ -43.986599912936754, -21.247323298553503 ], [ -43.98655453520977, -21.247083644607866 ], [ -43.986433527937791, -21.246801698290362 ], [ -43.986418402028789, -21.24673121162667 ], [ -43.986478905664782, -21.24655499481991 ], [ -43.986448653846772, -21.246399923855609 ], [ -43.986161261575823, -21.245814881929896 ], [ -43.986047817258346, -21.245871271614259 ], [ -43.985979750667845, -21.245702102496399 ], [ -43.986206639302829, -21.245413104804054 ], [ -43.986100757939838, -21.24527213011427 ] ] ] ] } },
{ "type": "Feature", "properties": { "NM_MUN": "Barbacena", "NM_UF": "Minas Gerais", "CHAVE_AMB": "1004_4", "AREA": 1.42, "NOME": "DOCE - 1022", "FAZENDA": 1022 }, "geometry": { "type": "MultiPolygon", "coordinates": [ [ [ [ -43.988422584970998, -21.24251957226905 ], [ -43.988324266562508, -21.242706367193414 ], [ -43.988222166676778, -21.242713416053856 ], [ -43.988161663040792, -21.242720464913948 ], [ -43.988082252018536, -21.242755709209376 ], [ -43.98798393361006, -21.242836771056876 ], [ -43.987696541339098, -21.243457068935392 ], [ -43.987757044975098, -21.243478215407947 ], [ -43.987844018951833, -21.243414775981169 ], [ -43.989042747239907, -21.243781314514475 ], [ -43.98923938405688, -21.243467642172053 ], [ -43.989246947011367, -21.243386580671611 ], [ -43.989216695193385, -21.243323141205384 ], [ -43.989148628602898, -21.243231506372602 ], [ -43.989057873148894, -21.243132822642806 ], [ -43.989050310194408, -21.242963650380823 ], [ -43.989122158262141, -21.242748660350973 ], [ -43.989129721216635, -21.242688745040866 ], [ -43.989080562012404, -21.242635878570528 ], [ -43.988498214515985, -21.242501950094145 ], [ -43.988422584970998, -21.24251957226905 ] ] ] ] } },
{ "type": "Feature", "properties": { "NM_MUN": "Barbacena", "NM_UF": "Minas Gerais", "CHAVE_AMB": "1005_5", "AREA": 2.64, "NOME": "MELITTA - 1023", "FAZENDA": 1023 }, "geometry": { "type": "MultiPolygon", "coordinates": [ [ [ [ -43.98746587122691, -21.246727687292591 ], [ -43.987711667248121, -21.247658108560064 ], [ -43.987813767133851, -21.248017587930541 ], [ -43.987908304065087, -21.248183230090344 ], [ -43.98803309281432, -21.248415833659919 ], [ -43.988120066791069, -21.248655485438366 ], [ -43.988146537131811, -21.248697776888211 ], [ -43.988263762926543, -21.248725971181361 ], [ -43.988551155197499, -21.248701301175153 ], [ -43.988615440310745, -21.248662534014187 ], [ -43.988747792014479, -21.248613193976382 ], [ -43.988849891900209, -21.248623766843014 ], [ -43.98895955474044, -21.248574426792224 ], [ -43.989031402808187, -21.248486319517578 ], [ -43.989042747239928, -21.248436979420763 ], [ -43.988933084399697, -21.248140938492782 ], [ -43.988933084399697, -21.248102171184343 ], [ -43.988982243603942, -21.248021112233758 ], [ -43.988914177013434, -21.247601719559604 ], [ -43.98896333621768, -21.247266909424894 ], [ -43.988955773263179, -21.247069547304804 ], [ -43.988815858604966, -21.24703430404125 ], [ -43.988808295650458, -21.246858087597023 ], [ -43.988751573491719, -21.246843990272371 ], [ -43.988384770198522, -21.246808746954866 ], [ -43.988275107358284, -21.246731211626663 ], [ -43.988176788949808, -21.2466572005935 ], [ -43.987968807701087, -21.24662900590441 ], [ -43.98746587122691, -21.246727687292591 ] ] ] ] } },
{ "type": "Feature", "properties": { "NM_MUN": "Barbacena", "NM_UF": "Minas Gerais", "CHAVE_AMB": "1003_3", "AREA": 4.45, "NOME": "AURORA - 1024", "FAZENDA": 1024 }, "geometry": { "type": "MultiPolygon", "coordinates": [ [ [ [ -43.964611223572064, -21.234031450598817 ], [ -43.964369209028099, -21.234108986694896 ], [ -43.964338957210103, -21.234193571480429 ], [ -43.964036439030139, -21.234264058764627 ], [ -43.963877616985656, -21.234468471698079 ], [ -43.963393587897734, -21.235018270594608 ], [ -43.963091069717777, -21.235300217950812 ], [ -43.96279611449232, -21.235652651387277 ], [ -43.962728047901834, -21.235948694822365 ], [ -43.963454091533734, -21.236449147847875 ], [ -43.96361291357821, -21.236632411910822 ], [ -43.963522158124221, -21.236808627140963 ], [ -43.963733920850188, -21.237090571070752 ], [ -43.963809550395176, -21.237090571070752 ], [ -43.96414232039313, -21.236956647771386 ], [ -43.964028876075638, -21.236836821558217 ], [ -43.963975935394153, -21.236611266069044 ], [ -43.964338957210103, -21.236519634052911 ], [ -43.96511037856898, -21.236082619038051 ], [ -43.965065000841996, -21.235842965092413 ], [ -43.964943993570017, -21.235561018774909 ], [ -43.964928867661015, -21.235490532111218 ], [ -43.964989371297008, -21.235314315304457 ], [ -43.964959119478998, -21.235159244340156 ], [ -43.964671727208049, -21.234574202414443 ], [ -43.964558282890572, -21.234630592098807 ], [ -43.964490216300071, -21.234461422980946 ], [ -43.964717104935055, -21.234172425288602 ], [ -43.964611223572064, -21.234031450598817 ] ] ] ] } },
{ "type": "Feature", "properties": { "NM_MUN": "Barbacena", "NM_UF": "Minas Gerais", "CHAVE_AMB": "1004_4", "AREA": 1.42, "NOME": "DOCE - 1025", "FAZENDA": 1025 }, "geometry": { "type": "MultiPolygon", "coordinates": [ [ [ [ -43.966933050603224, -21.231278892753597 ], [ -43.966834732194734, -21.231465687677961 ], [ -43.966732632309004, -21.231472736538404 ], [ -43.966672128673018, -21.231479785398495 ], [ -43.966592717650762, -21.231515029693924 ], [ -43.966494399242286, -21.231596091541423 ], [ -43.966207006971324, -21.232216389419939 ], [ -43.966267510607324, -21.232237535892494 ], [ -43.966354484584059, -21.232174096465716 ], [ -43.967553212872133, -21.232540634999022 ], [ -43.967749849689106, -21.2322269626566 ], [ -43.967757412643593, -21.232145901156159 ], [ -43.967727160825611, -21.232082461689931 ], [ -43.967659094235124, -21.23199082685715 ], [ -43.96756833878112, -21.231892143127354 ], [ -43.967560775826634, -21.23172297086537 ], [ -43.967632623894367, -21.23150798083552 ], [ -43.967640186848861, -21.231448065525413 ], [ -43.96759102764463, -21.231395199055076 ], [ -43.967008680148211, -21.231261270578692 ], [ -43.966933050603224, -21.231278892753597 ] ] ] ] } },
{ "type": "Feature", "properties": { "NM_MUN": "Barbacena", "NM_UF": "Minas Gerais", "CHAVE_AMB": "1005_5", "AREA": 2.64, "NOME": "MELITTA - 1026", "FAZENDA": 1026 }, "geometry": { "type": "MultiPolygon", "coordinates": [ [ [ [ -43.965976336859136, -21.235487007777138 ], [ -43.966222132880347, -21.236417429044611 ], [ -43.966324232766077, -21.236776908415088 ], [ -43.966418769697313, -21.236942550574891 ], [ -43.966543558446546, -21.237175154144467 ], [ -43.966630532423295, -21.237414805922914 ], [ -43.966657002764038, -21.237457097372758 ], [ -43.966774228558769, -21.237485291665909 ], [ -43.967061620829725, -21.2374606216597 ], [ -43.967125905942972, -21.237421854498734 ], [ -43.967258257646705, -21.23737251446093 ], [ -43.967360357532435, -21.237383087327562 ], [ -43.967470020372666, -21.237333747276772 ], [ -43.967541868440414, -21.237245640002126 ], [ -43.967553212872154, -21.23719629990531 ], [ -43.967443550031923, -21.236900258977329 ], [ -43.967443550031923, -21.23686149166889 ], [ -43.967492709236168, -21.236780432718305 ], [ -43.967424642645661, -21.236361040044152 ], [ -43.967473801849906, -21.236026229909442 ], [ -43.967466238895405, -21.235828867789351 ], [ -43.967326324237192, -21.235793624525797 ], [ -43.967318761282684, -21.23561740808157 ], [ -43.967262039123945, -21.235603310756918 ], [ -43.966895235830748, -21.235568067439413 ], [ -43.96678557299051, -21.235490532111211 ], [ -43.966687254582034, -21.235416521078047 ], [ -43.966479273333313, -21.235388326388957 ], [ -43.965976336859136, -21.235487007777138 ] ] ] ] } },
{ "type": "Feature", "properties": { "NM_MUN": "Barbacena", "NM_UF": "Minas Gerais", "CHAVE_AMB": "1003_3", "AREA": 4.45, "NOME": "AURORA - 1027", "FAZENDA": 1027 }, "geometry": { "type": "MultiPolygon", "coordinates": [ [ [ [ -43.931550401467803, -21.275026870008109 ], [ -43.931308386923838, -21.275104406104187 ], [ -43.931278135105842, -21.27518899088972 ], [ -43.930975616925878, -21.275259478173918 ], [ -43.930816794881395, -21.275463891107371 ], [ -43.930332765793473, -21.2760136900039 ], [ -43.930030247613516, -21.276295637360104 ], [ -43.92973529238806, -21.276648070796568 ], [ -43.929667225797573, -21.276944114231657 ], [ -43.930393269429473, -21.277444567257167 ], [ -43.930552091473949, -21.277627831320114 ], [ -43.93046133601996, -21.277804046550255 ], [ -43.930673098745928, -21.278085990480044 ], [ -43.930748728290915, -21.278085990480044 ], [ -43.931081498288869, -21.277952067180678 ], [ -43.930968053971377, -21.277832240967509 ], [ -43.930915113289892, -21.277606685478336 ], [ -43.931278135105842, -21.277515053462203 ], [ -43.932049556464719, -21.277078038447343 ], [ -43.932004178737735, -21.276838384501705 ], [ -43.931883171465756, -21.276556438184201 ], [ -43.931868045556755, -21.27648595152051 ], [ -43.931928549192747, -21.276309734713749 ], [ -43.931898297374737, -21.276154663749448 ], [ -43.931610905103788, -21.275569621823735 ], [ -43.931497460786311, -21.275626011508098 ], [ -43.93142939419581, -21.275456842390238 ], [ -43.931656282830794, -21.275167844697894 ], [ -43.931550401467803, -21.275026870008109 ] ] ] ] } },
{ "type": "Feature", "properties": { "NM_MUN": "Barbacena", "NM_UF": "Minas Gerais", "CHAVE_AMB": "1004_4", "AREA": 1.42, "NOME": "DOCE - 1028", "FAZENDA": 1028 }, "geometry": { "type": "MultiPolygon", "coordinates": [ [ [ [ -43.933872228498963, -21.272274312162889 ], [ -43.933773910090473, -21.272461107087253 ], [ -43.933671810204743, -21.272468155947696 ], [ -43.933611306568757, -21.272475204807787 ], [ -43.933531895546501, -21.272510449103216 ], [ -43.933433577138025, -21.272591510950715 ], [ -43.933146184867063, -21.273211808829231 ], [ -43.933206688503063, -21.273232955301786 ], [ -43.933293662479798, -21.273169515875008 ], [ -43.934492390767872, -21.273536054408314 ], [ -43.934689027584845, -21.273222382065892 ], [ -43.934696590539332, -21.27314132056545 ], [ -43.93466633872135, -21.273077881099223 ], [ -43.934598272130863, -21.272986246266441 ], [ -43.934507516676859, -21.272887562536646 ], [ -43.934499953722373, -21.272718390274662 ], [ -43.934571801790106, -21.272503400244812 ], [ -43.9345793647446, -21.272443484934705 ], [ -43.934530205540369, -21.272390618464367 ], [ -43.93394785804395, -21.272256689987984 ], [ -43.933872228498963, -21.272274312162889 ] ] ] ] } },
{ "type": "Feature", "properties": { "NM_MUN": "Barbacena", "NM_UF": "Minas Gerais", "CHAVE_AMB": "1005_5", "AREA": 2.64, "NOME": "MELITTA - 1029", "FAZENDA": 1029 }, "geometry": { "type": "MultiPolygon", "coordinates": [ [ [ [ -43.932915514754875, -21.27648242718643 ], [ -43.933161310776086, -21.277412848453903 ], [ -43.933263410661816, -21.27777232782438 ], [ -43.933357947593052, -21.277937969984183 ], [ -43.933482736342285, -21.278170573553759 ], [ -43.933569710319034, -21.278410225332205 ], [ -43.933596180659777, -21.27845251678205 ], [ -43.933713406454508, -21.278480711075201 ], [ -43.934000798725464, -21.278456041068992 ], [ -43.934065083838711, -21.278417273908026 ], [ -43.934197435542444, -21.278367933870221 ], [ -43.934299535428174, -21.278378506736853 ], [ -43.934409198268405, -21.278329166686063 ], [ -43.934481046336153, -21.278241059411418 ], [ -43.934492390767893, -21.278191719314602 ], [ -43.934382727927662, -21.277895678386621 ], [ -43.934382727927662, -21.277856911078182 ], [ -43.934431887131908, -21.277775852127597 ], [ -43.9343638205414, -21.277356459453443 ], [ -43.934412979745645, -21.277021649318733 ], [ -43.934405416791144, -21.276824287198643 ], [ -43.934265502132931, -21.276789043935089 ], [ -43.934257939178423, -21.276612827490862 ], [ -43.934201217019684, -21.27659873016621 ], [ -43.933834413726487, -21.276563486848705 ], [ -43.933724750886249, -21.276485951520502 ], [ -43.933626432477773, -21.276411940487339 ], [ -43.933418451229052, -21.276383745798249 ], [ -43.932915514754875, -21.27648242718643 ] ] ] ] } },
{ "type": "Feature", "properties": { "NM_MUN": "Barbacena", "NM_UF": "Minas Gerais", "CHAVE_AMB": "1003_3", "AREA": 4.45, "NOME": "AURORA - 1030", "FAZENDA": 1030 }, "geometry": { "type": "MultiPolygon", "coordinates": [ [ [ [ -43.826416987176231, -21.247586387661567 ], [ -43.826174972632266, -21.247663923757646 ], [ -43.82614472081427, -21.247748508543179 ], [ -43.825842202634306, -21.247818995827377 ], [ -43.825683380589822, -21.24802340876083 ], [ -43.825199351501901, -21.248573207657358 ], [ -43.824896833321944, -21.248855155013562 ], [ -43.824601878096487, -21.249207588450027 ], [ -43.824533811506001, -21.249503631885116 ], [ -43.825259855137901, -21.250004084910625 ], [ -43.825418677182377, -21.250187348973572 ], [ -43.825327921728388, -21.250363564203713 ], [ -43.825539684454355, -21.250645508133502 ], [ -43.825615313999343, -21.250645508133502 ], [ -43.825948083997297, -21.250511584834136 ], [ -43.825834639679805, -21.250391758620967 ], [ -43.82578169899832, -21.250166203131794 ], [ -43.82614472081427, -21.250074571115661 ], [ -43.826916142173147, -21.249637556100801 ], [ -43.826870764446163, -21.249397902155163 ], [ -43.826749757174184, -21.249115955837659 ], [ -43.826734631265182, -21.249045469173968 ], [ -43.826795134901175, -21.248869252367207 ], [ -43.826764883083165, -21.248714181402907 ], [ -43.826477490812216, -21.248129139477193 ], [ -43.826364046494739, -21.248185529161557 ], [ -43.826295979904238, -21.248016360043696 ], [ -43.826522868539222, -21.247727362351352 ], [ -43.826416987176231, -21.247586387661567 ] ] ] ] } },
{ "type": "Feature", "properties": { "NM_MUN": "Barbacena", "NM_UF": "Minas Gerais", "CHAVE_AMB": "1004_4", "AREA": 1.42, "NOME": "DOCE - 1031", "FAZENDA": 1031 }, "geometry": { "type": "MultiPolygon", "coordinates": [ [ [ [ -43.828738814207391, -21.244833829816347 ], [ -43.828640495798901, -21.245020624740711 ], [ -43.828538395913171, -21.245027673601154 ], [ -43.828477892277185, -21.245034722461245 ], [ -43.828398481254929, -21.245069966756674 ], [ -43.828300162846453, -21.245151028604173 ], [ -43.828012770575491, -21.245771326482689 ], [ -43.828073274211491, -21.245792472955245 ], [ -43.828160248188226, -21.245729033528466 ], [ -43.8293589764763, -21.246095572061773 ], [ -43.829555613293273, -21.245781899719351 ], [ -43.82956317624776, -21.245700838218909 ], [ -43.829532924429778, -21.245637398752681 ], [ -43.829464857839291, -21.2455457639199 ], [ -43.829374102385287, -21.245447080190104 ], [ -43.829366539430801, -21.24527790792812 ], [ -43.829438387498534, -21.24506291789827 ], [ -43.829445950453028, -21.245003002588163 ], [ -43.829396791248797, -21.244950136117826 ], [ -43.828814443752378, -21.244816207641442 ], [ -43.828738814207391, -21.244833829816347 ] ] ] ] } },
{ "type": "Feature", "properties": { "NM_MUN": "Barbacena", "NM_UF": "Minas Gerais", "CHAVE_AMB": "1005_5", "AREA": 2.64, "NOME": "MELITTA - 1032", "FAZENDA": 1032 }, "geometry": { "type": "MultiPolygon", "coordinates": [ [ [ [ -43.827782100463303, -21.249041944839888 ], [ -43.828027896484514, -21.249972366107361 ], [ -43.828129996370244, -21.250331845477838 ], [ -43.82822453330148, -21.250497487637642 ], [ -43.828349322050713, -21.250730091207217 ], [ -43.828436296027462, -21.250969742985664 ], [ -43.828462766368204, -21.251012034435508 ], [ -43.828579992162936, -21.251040228728659 ], [ -43.828867384433892, -21.25101555872245 ], [ -43.828931669547138, -21.250976791561484 ], [ -43.829064021250872, -21.25092745152368 ], [ -43.829166121136602, -21.250938024390312 ], [ -43.829275783976833, -21.250888684339522 ], [ -43.829347632044581, -21.250800577064876 ], [ -43.829358976476321, -21.25075123696806 ], [ -43.82924931363609, -21.250455196040079 ], [ -43.82924931363609, -21.25041642873164 ], [ -43.829298472840335, -21.250335369781055 ], [ -43.829230406249827, -21.249915977106902 ], [ -43.829279565454073, -21.249581166972192 ], [ -43.829272002499572, -21.249383804852101 ], [ -43.829132087841359, -21.249348561588548 ], [ -43.829124524886851, -21.24917234514432 ], [ -43.829067802728112, -21.249158247819668 ], [ -43.828700999434915, -21.249123004502163 ], [ -43.828591336594677, -21.249045469173961 ], [ -43.828493018186201, -21.248971458140797 ], [ -43.82828503693748, -21.248943263451707 ], [ -43.827782100463303, -21.249041944839888 ] ] ] ] } },
{ "type": "Feature", "properties": { "NM_MUN": "Barbacena", "NM_UF": "Minas Gerais", "CHAVE_AMB": "1003_3", "AREA": 4.45, "NOME": "AURORA - 1033", "FAZENDA": 1033 }, "geometry": { "type": "MultiPolygon", "coordinates": [ [ [ [ -43.824102729628933, -21.208905225799576 ], [ -43.823860715084969, -21.208982761895655 ], [ -43.823830463266972, -21.209067346681188 ], [ -43.823527945087008, -21.209137833965386 ], [ -43.823369123042525, -21.209342246898839 ], [ -43.822885093954604, -21.209892045795367 ], [ -43.822582575774646, -21.210173993151571 ], [ -43.82228762054919, -21.210526426588036 ], [ -43.822219553958703, -21.210822470023125 ], [ -43.822945597590603, -21.211322923048634 ], [ -43.823104419635079, -21.211506187111581 ], [ -43.82301366418109, -21.211682402341722 ], [ -43.823225426907058, -21.211964346271511 ], [ -43.823301056452046, -21.211964346271511 ], [ -43.823633826449999, -21.211830422972145 ], [ -43.823520382132507, -21.211710596758977 ], [ -43.823467441451022, -21.211485041269803 ], [ -43.823830463266972, -21.21139340925367 ], [ -43.824601884625849, -21.21095639423881 ], [ -43.824556506898865, -21.210716740293172 ], [ -43.824435499626887, -21.210434793975669 ], [ -43.824420373717885, -21.210364307311977 ], [ -43.824480877353878, -21.210188090505216 ], [ -43.824450625535867, -21.210033019540916 ], [ -43.824163233264919, -21.209447977615202 ], [ -43.824049788947441, -21.209504367299566 ], [ -43.82398172235694, -21.209335198181705 ], [ -43.824208610991924, -21.209046200489361 ], [ -43.824102729628933, -21.208905225799576 ] ] ] ] } },
{ "type": "Feature", "properties": { "NM_MUN": "Barbacena", "NM_UF": "Minas Gerais", "CHAVE_AMB": "1004_4", "AREA": 1.42, "NOME": "DOCE - 1034", "FAZENDA": 1034 }, "geometry": { "type": "MultiPolygon", "coordinates": [ [ [ [ -43.826424556660093, -21.206152667954356 ], [ -43.826326238251603, -21.20633946287872 ], [ -43.826224138365873, -21.206346511739163 ], [ -43.826163634729888, -21.206353560599254 ], [ -43.826084223707632, -21.206388804894683 ], [ -43.825985905299156, -21.206469866742182 ], [ -43.825698513028193, -21.207090164620698 ], [ -43.825759016664193, -21.207111311093254 ], [ -43.825845990640929, -21.207047871666475 ], [ -43.827044718929002, -21.207414410199782 ], [ -43.827241355745976, -21.20710073785736 ], [ -43.827248918700462, -21.207019676356918 ], [ -43.82721866688248, -21.20695623689069 ], [ -43.827150600291993, -21.206864602057909 ], [ -43.82705984483799, -21.206765918328113 ], [ -43.827052281883503, -21.206596746066129 ], [ -43.827124129951237, -21.206381756036279 ], [ -43.827131692905731, -21.206321840726172 ], [ -43.8270825337015, -21.206268974255835 ], [ -43.826500186205081, -21.206135045779451 ], [ -43.826424556660093, -21.206152667954356 ] ] ] ] } },
{ "type": "Feature", "properties": { "NM_MUN": "Barbacena", "NM_UF": "Minas Gerais", "CHAVE_AMB": "1005_5", "AREA": 2.64, "NOME": "MELITTA - 1035", "FAZENDA": 1035 }, "geometry": { "type": "MultiPolygon", "coordinates": [ [ [ [ -43.825467842916005, -21.210360782977897 ], [ -43.825713638937216, -21.21129120424537 ], [ -43.825815738822946, -21.211650683615847 ], [ -43.825910275754183, -21.211816325775651 ], [ -43.826035064503415, -21.212048929345226 ], [ -43.826122038480165, -21.212288581123673 ], [ -43.826148508820907, -21.212330872573517 ], [ -43.826265734615639, -21.212359066866668 ], [ -43.826553126886594, -21.212334396860459 ], [ -43.826617411999841, -21.212295629699494 ], [ -43.826749763703575, -21.212246289661689 ], [ -43.826851863589305, -21.212256862528321 ], [ -43.826961526429535, -21.212207522477531 ], [ -43.827033374497283, -21.212119415202885 ], [ -43.827044718929024, -21.21207007510607 ], [ -43.826935056088793, -21.211774034178088 ], [ -43.826935056088793, -21.211735266869649 ], [ -43.826984215293038, -21.211654207919064 ], [ -43.82691614870253, -21.211234815244911 ], [ -43.826965307906775, -21.210900005110201 ], [ -43.826957744952274, -21.21070264299011 ], [ -43.826817830294061, -21.210667399726557 ], [ -43.826810267339553, -21.210491183282329 ], [ -43.826753545180814, -21.210477085957677 ], [ -43.826386741887617, -21.210441842640172 ], [ -43.826277079047379, -21.21036430731197 ], [ -43.826178760638903, -21.210290296278806 ], [ -43.825970779390182, -21.210262101589716 ], [ -43.825467842916005, -21.210360782977897 ] ] ] ] } },
{ "type": "Feature", "properties": { "NM_MUN": "Barbacena", "NM_UF": "Minas Gerais", "CHAVE_AMB": "1003_3", "AREA": 4.45, "NOME": "AURORA - 1036", "FAZENDA": 1036 }, "geometry": { "type": "MultiPolygon", "coordinates": [ [ [ [ -43.780793052672344, -21.177828053021564 ], [ -43.78055103812838, -21.177905589117643 ], [ -43.780520786310383, -21.177990173903176 ], [ -43.780218268130419, -21.178060661187374 ], [ -43.780059446085936, -21.178265074120826 ], [ -43.779575416998014, -21.178814873017355 ], [ -43.779272898818057, -21.179096820373559 ], [ -43.778977943592601, -21.179449253810024 ], [ -43.778909877002114, -21.179745297245113 ], [ -43.779635920634014, -21.180245750270622 ], [ -43.77979474267849, -21.180429014333569 ], [ -43.779703987224501, -21.18060522956371 ], [ -43.779915749950469, -21.180887173493499 ], [ -43.779991379495456, -21.180887173493499 ], [ -43.78032414949341, -21.180753250194133 ], [ -43.780210705175918, -21.180633423980964 ], [ -43.780157764494433, -21.180407868491791 ], [ -43.780520786310383, -21.180316236475658 ], [ -43.78129220766926, -21.179879221460798 ], [ -43.781246829942276, -21.17963956751516 ], [ -43.781125822670298, -21.179357621197656 ], [ -43.781110696761296, -21.179287134533965 ], [ -43.781171200397289, -21.179110917727204 ], [ -43.781140948579278, -21.178955846762904 ], [ -43.78085355630833, -21.17837080483719 ], [ -43.780740111990852, -21.178427194521554 ], [ -43.780672045400351, -21.178258025403693 ], [ -43.780898934035335, -21.177969027711349 ], [ -43.780793052672344, -21.177828053021564 ] ] ] ] } },
{ "type": "Feature", "properties": { "NM_MUN": "Barbacena", "NM_UF": "Minas Gerais", "CHAVE_AMB": "1004_4", "AREA": 1.42, "NOME": "DOCE - 1037", "FAZENDA": 1037 }, "geometry": { "type": "MultiPolygon", "coordinates": [ [ [ [ -43.783114879703504, -21.175075495176344 ], [ -43.783016561295014, -21.175262290100708 ], [ -43.782914461409284, -21.175269338961151 ], [ -43.782853957773298, -21.175276387821242 ], [ -43.782774546751043, -21.175311632116671 ], [ -43.782676228342567, -21.17539269396417 ], [ -43.782388836071604, -21.176012991842686 ], [ -43.782449339707604, -21.176034138315242 ], [ -43.782536313684339, -21.175970698888463 ], [ -43.783735041972413, -21.17633723742177 ], [ -43.783931678789386, -21.176023565079348 ], [ -43.783939241743873, -21.175942503578906 ], [ -43.783908989925891, -21.175879064112678 ], [ -43.783840923335404, -21.175787429279897 ], [ -43.783750167881401, -21.175688745550101 ], [ -43.783742604926914, -21.175519573288117 ], [ -43.783814452994648, -21.175304583258267 ], [ -43.783822015949141, -21.17524466794816 ], [ -43.78377285674491, -21.175191801477823 ], [ -43.783190509248492, -21.175057873001439 ], [ -43.783114879703504, -21.175075495176344 ] ] ] ] } },
{ "type": "Feature", "properties": { "NM_MUN": "Barbacena", "NM_UF": "Minas Gerais", "CHAVE_AMB": "1005_5", "AREA": 2.64, "NOME": "MELITTA - 1038", "FAZENDA": 1038 }, "geometry": { "type": "MultiPolygon", "coordinates": [ [ [ [ -43.782158165959416, -21.179283610199885 ], [ -43.782403961980627, -21.180214031467358 ], [ -43.782506061866357, -21.180573510837835 ], [ -43.782600598797593, -21.180739152997639 ], [ -43.782725387546826, -21.180971756567214 ], [ -43.782812361523575, -21.181211408345661 ], [ -43.782838831864318, -21.181253699795505 ], [ -43.78295605765905, -21.181281894088656 ], [ -43.783243449930005, -21.181257224082447 ], [ -43.783307735043252, -21.181218456921481 ], [ -43.783440086746985, -21.181169116883677 ], [ -43.783542186632715, -21.181179689750309 ], [ -43.783651849472946, -21.181130349699519 ], [ -43.783723697540694, -21.181042242424873 ], [ -43.783735041972434, -21.180992902328057 ], [ -43.783625379132204, -21.180696861400076 ], [ -43.783625379132204, -21.180658094091637 ], [ -43.783674538336449, -21.180577035141052 ], [ -43.783606471745941, -21.180157642466899 ], [ -43.783655630950186, -21.179822832332189 ], [ -43.783648067995685, -21.179625470212098 ], [ -43.783508153337472, -21.179590226948545 ], [ -43.783500590382964, -21.179414010504317 ], [ -43.783443868224225, -21.179399913179665 ], [ -43.783077064931028, -21.17936466986216 ], [ -43.78296740209079, -21.179287134533958 ], [ -43.782869083682314, -21.179213123500794 ], [ -43.782661102433593, -21.179184928811704 ], [ -43.782158165959416, -21.179283610199885 ] ] ] ] } },
{ "type": "Feature", "properties": { "NM_MUN": "Barbacena", "NM_UF": "Minas Gerais", "CHAVE_AMB": "1003_3", "AREA": 4.45, "NOME": "AURORA - 1039", "FAZENDA": 1039 }, "geometry": { "type": "MultiPolygon", "coordinates": [ [ [ [ -43.842947398228361, -21.180803527010948 ], [ -43.842705383684397, -21.180881063107027 ], [ -43.8426751318664, -21.18096564789256 ], [ -43.842372613686436, -21.181036135176758 ], [ -43.842213791641953, -21.18124054811021 ], [ -43.841729762554031, -21.181790347006739 ], [ -43.841427244374074, -21.182072294362943 ], [ -43.841132289148618, -21.182424727799408 ], [ -43.841064222558131, -21.182720771234496 ], [ -43.841790266190031, -21.183221224260006 ], [ -43.841949088234507, -21.183404488322953 ], [ -43.841858332780518, -21.183580703553094 ], [ -43.842070095506486, -21.183862647482883 ], [ -43.842145725051473, -21.183862647482883 ], [ -43.842478495049427, -21.183728724183517 ], [ -43.842365050731935, -21.183608897970348 ], [ -43.84231211005045, -21.183383342481175 ], [ -43.8426751318664, -21.183291710465042 ], [ -43.843446553225277, -21.182854695450182 ], [ -43.843401175498293, -21.182615041504544 ], [ -43.843280168226315, -21.18233309518704 ], [ -43.843265042317313, -21.182262608523349 ], [ -43.843325545953306, -21.182086391716588 ], [ -43.843295294135295, -21.181931320752287 ], [ -43.843007901864347, -21.181346278826574 ], [ -43.842894457546869, -21.181402668510938 ], [ -43.842826390956368, -21.181233499393077 ], [ -43.843053279591352, -21.180944501700733 ], [ -43.842947398228361, -21.180803527010948 ] ] ] ] } },
{ "type": "Feature", "properties": { "NM_MUN": "Barbacena", "NM_UF": "Minas Gerais", "CHAVE_AMB": "1004_4", "AREA": 1.42, "NOME": "DOCE - 1040", "FAZENDA": 1040 }, "geometry": { "type": "MultiPolygon", "coordinates": [ [ [ [ -43.845269225259521, -21.178050969165728 ], [ -43.845170906851031, -21.178237764090092 ], [ -43.845068806965301, -21.178244812950535 ], [ -43.845008303329315, -21.178251861810626 ], [ -43.84492889230706, -21.178287106106055 ], [ -43.844830573898584, -21.178368167953554 ], [ -43.844543181627621, -21.17898846583207 ], [ -43.844603685263621, -21.179009612304625 ], [ -43.844690659240356, -21.178946172877847 ], [ -43.84588938752843, -21.179312711411153 ], [ -43.846086024345404, -21.178999039068731 ], [ -43.84609358729989, -21.17891797756829 ], [ -43.846063335481908, -21.178854538102062 ], [ -43.845995268891421, -21.178762903269281 ], [ -43.845904513437418, -21.178664219539485 ], [ -43.845896950482931, -21.178495047277501 ], [ -43.845968798550665, -21.178280057247651 ], [ -43.845976361505159, -21.178220141937544 ], [ -43.845927202300928, -21.178167275467207 ], [ -43.845344854804509, -21.178033346990823 ], [ -43.845269225259521, -21.178050969165728 ] ] ] ] } },
{ "type": "Feature", "properties": { "NM_MUN": "Barbacena", "NM_UF": "Minas Gerais", "CHAVE_AMB": "1005_5", "AREA": 2.64, "NOME": "MELITTA - 1041", "FAZENDA": 1041 }, "geometry": { "type": "MultiPolygon", "coordinates": [ [ [ [ -43.844312511515433, -21.182259084189269 ], [ -43.844558307536644, -21.183189505456742 ], [ -43.844660407422374, -21.183548984827219 ], [ -43.84475494435361, -21.183714626987022 ], [ -43.844879733102843, -21.183947230556598 ], [ -43.844966707079593, -21.184186882335045 ], [ -43.844993177420335, -21.184229173784889 ], [ -43.845110403215067, -21.18425736807804 ], [ -43.845397795486022, -21.184232698071831 ], [ -43.845462080599269, -21.184193930910865 ], [ -43.845594432303002, -21.184144590873061 ], [ -43.845696532188732, -21.184155163739693 ], [ -43.845806195028963, -21.184105823688903 ], [ -43.845878043096711, -21.184017716414257 ], [ -43.845889387528452, -21.183968376317441 ], [ -43.845779724688221, -21.18367233538946 ], [ -43.845779724688221, -21.183633568081021 ], [ -43.845828883892466, -21.183552509130436 ], [ -43.845760817301958, -21.183133116456283 ], [ -43.845809976506203, -21.182798306321573 ], [ -43.845802413551702, -21.182600944201482 ], [ -43.845662498893489, -21.182565700937928 ], [ -43.845654935938981, -21.182389484493701 ], [ -43.845598213780242, -21.182375387169049 ], [ -43.845231410487045, -21.182340143851544 ], [ -43.845121747646807, -21.182262608523342 ], [ -43.845023429238331, -21.182188597490178 ], [ -43.84481544798961, -21.182160402801088 ], [ -43.844312511515433, -21.182259084189269 ] ] ] ] } },
{ "type": "Feature", "properties": { "NM_MUN": "Barbacena", "NM_UF": "Minas Gerais", "CHAVE_AMB": "1003_3", "AREA": 4.45, "NOME": "AURORA - 1042", "FAZENDA": 1042 }, "geometry": { "type": "MultiPolygon", "coordinates": [ [ [ [ -43.81914360631329, -21.175183187253221 ], [ -43.818901591769325, -21.1752607233493 ], [ -43.818871339951329, -21.175345308134833 ], [ -43.818568821771365, -21.175415795419031 ], [ -43.818409999726882, -21.175620208352484 ], [ -43.81792597063896, -21.176170007249013 ], [ -43.817623452459003, -21.176451954605216 ], [ -43.817328497233547, -21.176804388041681 ], [ -43.81726043064306, -21.17710043147677 ], [ -43.81798647427496, -21.177600884502279 ], [ -43.818145296319436, -21.177784148565227 ], [ -43.818054540865447, -21.177960363795368 ], [ -43.818266303591415, -21.178242307725156 ], [ -43.818341933136402, -21.178242307725156 ], [ -43.818674703134356, -21.178108384425791 ], [ -43.818561258816864, -21.177988558212622 ], [ -43.818508318135379, -21.177763002723449 ], [ -43.818871339951329, -21.177671370707316 ], [ -43.819642761310206, -21.177234355692455 ], [ -43.819597383583222, -21.176994701746818 ], [ -43.819476376311243, -21.176712755429314 ], [ -43.819461250402242, -21.176642268765622 ], [ -43.819521754038234, -21.176466051958862 ], [ -43.819491502220224, -21.176310980994561 ], [ -43.819204109949276, -21.175725939068847 ], [ -43.819090665631798, -21.175782328753211 ], [ -43.819022599041297, -21.175613159635351 ], [ -43.819249487676281, -21.175324161943006 ], [ -43.81914360631329, -21.175183187253221 ] ] ] ] } },
{ "type": "Feature", "properties": { "NM_MUN": "Barbacena", "NM_UF": "Minas Gerais", "CHAVE_AMB": "1004_4", "AREA": 1.42, "NOME": "DOCE - 1043", "FAZENDA": 1043 }, "geometry": { "type": "MultiPolygon", "coordinates": [ [ [ [ -43.82146543334445, -21.172430629408002 ], [ -43.82136711493596, -21.172617424332365 ], [ -43.82126501505023, -21.172624473192808 ], [ -43.821204511414244, -21.1726315220529 ], [ -43.821125100391988, -21.172666766348328 ], [ -43.821026781983512, -21.172747828195828 ], [ -43.82073938971255, -21.173368126074344 ], [ -43.82079989334855, -21.173389272546899 ], [ -43.820886867325285, -21.173325833120121 ], [ -43.822085595613359, -21.173692371653427 ], [ -43.822282232430332, -21.173378699311005 ], [ -43.822289795384819, -21.173297637810563 ], [ -43.822259543566837, -21.173234198344336 ], [ -43.82219147697635, -21.173142563511554 ], [ -43.822100721522347, -21.173043879781758 ], [ -43.82209315856786, -21.172874707519775 ], [ -43.822165006635593, -21.172659717489925 ], [ -43.822172569590087, -21.172599802179818 ], [ -43.822123410385856, -21.17254693570948 ], [ -43.821541062889438, -21.172413007233096 ], [ -43.82146543334445, -21.172430629408002 ] ] ] ] } },
{ "type": "Feature", "properties": { "NM_MUN": "Barbacena", "NM_UF": "Minas Gerais", "CHAVE_AMB": "1005_5", "AREA": 2.64, "NOME": "MELITTA - 1044", "FAZENDA": 1044 }, "geometry": { "type": "MultiPolygon", "coordinates": [ [ [ [ -43.820508719600362, -21.176638744431543 ], [ -43.820754515621573, -21.177569165699015 ], [ -43.820856615507303, -21.177928645069493 ], [ -43.820951152438539, -21.178094287229296 ], [ -43.821075941187772, -21.178326890798871 ], [ -43.821162915164521, -21.178566542577318 ], [ -43.821189385505264, -21.178608834027163 ], [ -43.821306611299995, -21.178637028320313 ], [ -43.821594003570951, -21.178612358314105 ], [ -43.821658288684198, -21.178573591153139 ], [ -43.821790640387931, -21.178524251115334 ], [ -43.821892740273661, -21.178534823981966 ], [ -43.822002403113892, -21.178485483931176 ], [ -43.82207425118164, -21.17839737665653 ], [ -43.82208559561338, -21.178348036559715 ], [ -43.82197593277315, -21.178051995631733 ], [ -43.82197593277315, -21.178013228323294 ], [ -43.822025091977395, -21.17793216937271 ], [ -43.821957025386887, -21.177512776698556 ], [ -43.822006184591132, -21.177177966563846 ], [ -43.821998621636631, -21.176980604443756 ], [ -43.821858706978418, -21.176945361180202 ], [ -43.82185114402391, -21.176769144735974 ], [ -43.821794421865171, -21.176755047411323 ], [ -43.821427618571974, -21.176719804093818 ], [ -43.821317955731736, -21.176642268765615 ], [ -43.82121963732326, -21.176568257732452 ], [ -43.821011656074539, -21.176540063043362 ], [ -43.820508719600362, -21.176638744431543 ] ] ] ] } },
{ "type": "Feature", "properties": { "NM_MUN": "Barbacena", "NM_UF": "Minas Gerais", "CHAVE_AMB": "1003_3", "AREA": 4.45, "NOME": "AURORA - 1045", "FAZENDA": 1045 }, "geometry": { "type": "MultiPolygon", "coordinates": [ [ [ [ -43.842947398228361, -21.249239428766781 ], [ -43.842705383684397, -21.24931696486286 ], [ -43.8426751318664, -21.249401549648393 ], [ -43.842372613686436, -21.249472036932591 ], [ -43.842213791641953, -21.249676449866044 ], [ -43.841729762554031, -21.250226248762573 ], [ -43.841427244374074, -21.250508196118776 ], [ -43.841132289148618, -21.250860629555241 ], [ -43.841064222558131, -21.25115667299033 ], [ -43.841790266190031, -21.251657126015839 ], [ -43.841949088234507, -21.251840390078787 ], [ -43.841858332780518, -21.252016605308928 ], [ -43.842070095506486, -21.252298549238716 ], [ -43.842145725051473, -21.252298549238716 ], [ -43.842478495049427, -21.252164625939351 ], [ -43.842365050731935, -21.252044799726182 ], [ -43.84231211005045, -21.251819244237009 ], [ -43.8426751318664, -21.251727612220876 ], [ -43.843446553225277, -21.251290597206015 ], [ -43.843401175498293, -21.251050943260378 ], [ -43.843280168226315, -21.250768996942874 ], [ -43.843265042317313, -21.250698510279182 ], [ -43.843325545953306, -21.250522293472422 ], [ -43.843295294135295, -21.250367222508121 ], [ -43.843007901864347, -21.249782180582407 ], [ -43.842894457546869, -21.249838570266771 ], [ -43.842826390956368, -21.24966940114891 ], [ -43.843053279591352, -21.249380403456566 ], [ -43.842947398228361, -21.249239428766781 ] ] ] ] } },
{ "type": "Feature", "properties": { "NM_MUN": "Barbacena", "NM_UF": "Minas Gerais", "CHAVE_AMB": "1004_4", "AREA": 1.42, "NOME": "DOCE - 1046", "FAZENDA": 1046 }, "geometry": { "type": "MultiPolygon", "coordinates": [ [ [ [ -43.845269225259521, -21.246486870921562 ], [ -43.845170906851031, -21.246673665845925 ], [ -43.845068806965301, -21.246680714706368 ], [ -43.845008303329315, -21.246687763566459 ], [ -43.84492889230706, -21.246723007861888 ], [ -43.844830573898584, -21.246804069709388 ], [ -43.844543181627621, -21.247424367587904 ], [ -43.844603685263621, -21.247445514060459 ], [ -43.844690659240356, -21.247382074633681 ], [ -43.84588938752843, -21.247748613166987 ], [ -43.846086024345404, -21.247434940824565 ], [ -43.84609358729989, -21.247353879324123 ], [ -43.846063335481908, -21.247290439857895 ], [ -43.845995268891421, -21.247198805025114 ], [ -43.845904513437418, -21.247100121295318 ], [ -43.845896950482931, -21.246930949033334 ], [ -43.845968798550665, -21.246715959003485 ], [ -43.845976361505159, -21.246656043693378 ], [ -43.845927202300928, -21.24660317722304 ], [ -43.845344854804509, -21.246469248746656 ], [ -43.845269225259521, -21.246486870921562 ] ] ] ] } },
{ "type": "Feature", "properties": { "NM_MUN": "Barbacena", "NM_UF": "Minas Gerais", "CHAVE_AMB": "1005_5", "AREA": 2.64, "NOME": "MELITTA - 1047", "FAZENDA": 1047 }, "geometry": { "type": "MultiPolygon", "coordinates": [ [ [ [ -43.844312511515433, -21.250694985945103 ], [ -43.844558307536644, -21.251625407212575 ], [ -43.844660407422374, -21.251984886583053 ], [ -43.84475494435361, -21.252150528742856 ], [ -43.844879733102843, -21.252383132312431 ], [ -43.844966707079593, -21.252622784090878 ], [ -43.844993177420335, -21.252665075540722 ], [ -43.845110403215067, -21.252693269833873 ], [ -43.845397795486022, -21.252668599827665 ], [ -43.845462080599269, -21.252629832666699 ], [ -43.845594432303002, -21.252580492628894 ], [ -43.845696532188732, -21.252591065495526 ], [ -43.845806195028963, -21.252541725444736 ], [ -43.845878043096711, -21.25245361817009 ], [ -43.845889387528452, -21.252404278073275 ], [ -43.845779724688221, -21.252108237145293 ], [ -43.845779724688221, -21.252069469836854 ], [ -43.845828883892466, -21.25198841088627 ], [ -43.845760817301958, -21.251569018212116 ], [ -43.845809976506203, -21.251234208077406 ], [ -43.845802413551702, -21.251036845957316 ], [ -43.845662498893489, -21.251001602693762 ], [ -43.845654935938981, -21.250825386249534 ], [ -43.845598213780242, -21.250811288924883 ], [ -43.845231410487045, -21.250776045607378 ], [ -43.845121747646807, -21.250698510279175 ], [ -43.845023429238331, -21.250624499246012 ], [ -43.84481544798961, -21.250596304556922 ], [ -43.844312511515433, -21.250694985945103 ] ] ] ] } },
{ "type": "Feature", "properties": { "NM_MUN": "Barbacena", "NM_UF": "Minas Gerais", "CHAVE_AMB": "1003_3", "AREA": 4.45, "NOME": "AURORA - 1048", "FAZENDA": 1048 }, "geometry": { "type": "MultiPolygon", "coordinates": [ [ [ [ -43.951386894730362, -21.322303845617213 ], [ -43.951144880186398, -21.322381381713292 ], [ -43.951114628368401, -21.322465966498825 ], [ -43.950812110188437, -21.322536453783023 ], [ -43.950653288143954, -21.322740866716476 ], [ -43.950169259056032, -21.323290665613005 ], [ -43.949866740876075, -21.323572612969208 ], [ -43.949571785650619, -21.323925046405673 ], [ -43.949503719060132, -21.324221089840762 ], [ -43.950229762692032, -21.324721542866271 ], [ -43.950388584736508, -21.324904806929219 ], [ -43.950297829282519, -21.32508102215936 ], [ -43.950509592008487, -21.325362966089148 ], [ -43.950585221553474, -21.325362966089148 ], [ -43.950917991551428, -21.325229042789783 ], [ -43.950804547233936, -21.325109216576614 ], [ -43.950751606552451, -21.324883661087441 ], [ -43.951114628368401, -21.324792029071308 ], [ -43.951886049727278, -21.324355014056447 ], [ -43.951840672000294, -21.32411536011081 ], [ -43.951719664728316, -21.323833413793306 ], [ -43.951704538819314, -21.323762927129614 ], [ -43.951765042455307, -21.323586710322854 ], [ -43.951734790637296, -21.323431639358553 ], [ -43.951447398366348, -21.322846597432839 ], [ -43.95133395404887, -21.322902987117203 ], [ -43.951265887458369, -21.322733817999342 ], [ -43.951492776093353, -21.322444820306998 ], [ -43.951386894730362, -21.322303845617213 ] ] ] ] } },
{ "type": "Feature", "properties": { "NM_MUN": "Barbacena", "NM_UF": "Minas Gerais", "CHAVE_AMB": "1004_4", "AREA": 1.42, "NOME": "DOCE - 1049", "FAZENDA": 1049 }, "geometry": { "type": "MultiPolygon", "coordinates": [ [ [ [ -43.953708721761522, -21.319551287771993 ], [ -43.953610403353032, -21.319738082696357 ], [ -43.953508303467302, -21.3197451315568 ], [ -43.953447799831316, -21.319752180416891 ], [ -43.953368388809061, -21.31978742471232 ], [ -43.953270070400585, -21.31986848655982 ], [ -43.952982678129622, -21.320488784438336 ], [ -43.953043181765622, -21.320509930910891 ], [ -43.953130155742357, -21.320446491484113 ], [ -43.954328884030431, -21.320813030017419 ], [ -43.954525520847405, -21.320499357674997 ], [ -43.954533083801891, -21.320418296174555 ], [ -43.954502831983909, -21.320354856708327 ], [ -43.954434765393422, -21.320263221875546 ], [ -43.954344009939419, -21.32016453814575 ], [ -43.954336446984932, -21.319995365883766 ], [ -43.954408295052666, -21.319780375853917 ], [ -43.95441585800716, -21.31972046054381 ], [ -43.954366698802929, -21.319667594073472 ], [ -43.95378435130651, -21.319533665597088 ], [ -43.953708721761522, -21.319551287771993 ] ] ] ] } },
{ "type": "Feature", "properties": { "NM_MUN": "Barbacena", "NM_UF": "Minas Gerais", "CHAVE_AMB": "1005_5", "AREA": 2.64, "NOME": "MELITTA - 1050", "FAZENDA": 1050 }, "geometry": { "type": "MultiPolygon", "coordinates": [ [ [ [ -43.952752008017434, -21.323759402795535 ], [ -43.952997804038645, -21.324689824063007 ], [ -43.953099903924375, -21.325049303433484 ], [ -43.953194440855611, -21.325214945593288 ], [ -43.953319229604844, -21.325447549162863 ], [ -43.953406203581594, -21.32568720094131 ], [ -43.953432673922336, -21.325729492391154 ], [ -43.953549899717068, -21.325757686684305 ], [ -43.953837291988023, -21.325733016678097 ], [ -43.95390157710127, -21.325694249517131 ], [ -43.954033928805003, -21.325644909479326 ], [ -43.954136028690733, -21.325655482345958 ], [ -43.954245691530964, -21.325606142295168 ], [ -43.954317539598712, -21.325518035020522 ], [ -43.954328884030453, -21.325468694923707 ], [ -43.954219221190222, -21.325172653995725 ], [ -43.954219221190222, -21.325133886687286 ], [ -43.954268380394467, -21.325052827736702 ], [ -43.954200313803959, -21.324633435062548 ], [ -43.954249473008204, -21.324298624927838 ], [ -43.954241910053703, -21.324101262807748 ], [ -43.95410199539549, -21.324066019544194 ], [ -43.954094432440982, -21.323889803099966 ], [ -43.954037710282243, -21.323875705775315 ], [ -43.953670906989046, -21.32384046245781 ], [ -43.953561244148808, -21.323762927129607 ], [ -43.953462925740332, -21.323688916096444 ], [ -43.953254944491611, -21.323660721407354 ], [ -43.952752008017434, -21.323759402795535 ] ] ] ] } }
]
}
